COMMENT,ORIGINATOR,NORAD_CAT_ID,OBJECT_NAME,OBJECT_TYPE,CLASSIFICATION_TYPE,INTLDES,EPOCH,EPOCH_MICROSECONDS,MEAN_MOTION,ECCENTRICITY,INCLINATION,RA_OF_ASC_NODE,ARG_OF_PERICENTER,MEAN_ANOMALY,EPHEMERIS_TYPE,ELEMENT_SET_NO,REV_AT_EPOCH,BSTAR,MEAN_MOTION_DOT,MEAN_MOTION_DDOT,FILE,TLE_LINE0,TLE_LINE1,TLE_LINE2,OBJECT_ID,OBJECT_NUMBER,SEMIMAJOR_AXIS,PERIOD,APOGEE,PERIGEE,DECAYED
"GENERATED VIA SPACETRACK.ORG API","18 SPCS","55950","STARLINK-5911","PAYLOAD","U","23037AN","2023-11-07 13:57:40","682304","14.98317319","0.0002937","70","255.5286","264.2278","95.8546","0","999","3702","-0.00030405","-0.00003718","0","4076944","0 STARLINK-5911","1 55950U 23037AN  23311.58172086 -.00003718  00000-0 -30405-3 0  9992","2 55950  70.0000 255.5286 0002937 264.2278  95.8546 14.98317319 37023","2023-037AN","55950","6950.232","96.108","574.138","570.056","0"
"GENERATED VIA SPACETRACK.ORG API","18 SPCS","55315","STARLINK-4623","PAYLOAD","U","23010AY","2023-11-07 14:17:41","890272","14.98309846","0.000301","70","15.4248","272.6532","87.4282","0","999","4547","-0.00032757","-0.00003997","0","4076432","0 STARLINK-4623","1 55315U 23010AY  23311.59562373 -.00003997  00000-0 -32757-3 0  9992","2 55315  70.0000  15.4248 0003010 272.6532  87.4282 14.98309846 45476","2023-010AY","55315","6950.255","96.108","574.212","570.028","0"
"GENERATED VIA SPACETRACK.ORG API","18 SPCS","55286","STARLINK-5338","PAYLOAD","U","23010T","2023-11-07 14:29:43","74528","14.98312463","0.000282","70","15.456","263.5842","96.4996","0","999","4548","-0.00013203","-0.00001667","0","4076432","0 STARLINK-5338","1 55286U 23010T   23311.60397077 -.00001667  00000-0 -13203-3 0  9995","2 55286  70.0000  15.4560 0002820 263.5842  96.4996 14.98312463 45483","2023-010T","55286","6950.247","96.108","574.072","570.152","0"
"GENERATED VIA SPACETRACK.ORG API","18 SPCS","55415","STARLINK-5618","PAYLOAD","U","23014AA","2023-11-07 14:36:57","395232","14.98310371","0.0003034","70","75.19","266.5715","93.5097","0","999","4378","-0.00028829","-0.00003529","0","4076432","0 STARLINK-5618","1 55415U 23014AA  23311.60899763 -.00003529  00000-0 -28829-3 0  9991","2 55415  70.0000  75.1900 0003034 266.5715  93.5097 14.98310371 43785","2023-014AA","55415","6950.254","96.108","574.227","570.010","0"
"GENERATED VIA SPACETRACK.ORG API","18 SPCS","49141","STARLINK-3093","PAYLOAD","U","21082M","2023-11-07 15:37:18","405408","14.98309286","0.0002439","70","285.2792","261.6095","98.4788","0","999","11940","-0.00032561","-0.00003974","0","4077041","0 STARLINK-3093","1 49141U 21082M   23311.65090747 -.00003974  00000-0 -32561-3 0  9995","2 49141  70.0000 285.2792 0002439 261.6095  98.4788 14.98309286119409","2021-082M","49141","6950.257","96.108","573.817","570.427","0"
"GENERATED VIA SPACETRACK.ORG API","18 SPCS","55428","STARLINK-5064","PAYLOAD","U","23014AP","2023-11-07 17:42:59","463936","14.98321236","0.0003099","70","75.2412","272.0837","87.9967","0","999","4285","-0.00021411","-0.00002646","0","4076663","0 STARLINK-5064","1 55428U 23014AP  23311.73818824 -.00002646  00000-0 -21411-3 0  9997","2 55428  70.0000  75.2412 0003099 272.0837  87.9967 14.98321236 42858","2023-014AP","55428","6950.220","96.108","574.239","569.931","0"
"GENERATED VIA SPACETRACK.ORG API","18 SPCS","55673","STARLINK-5463","PAYLOAD","U","23021AX","2023-11-07 17:50:17","932704","14.98323278","0.0002681","70","154.9484","271.211","88.8742","0","999","4122","-0.00016444","-0.00002054","0","4076681","0 STARLINK-5463","1 55673U 23021AX  23311.74326311 -.00002054  00000-0 -16444-3 0  9996","2 55673  70.0000 154.9484 0002681 271.2110  88.8742 14.98323278 41224","2023-021AX","55673","6950.214","96.107","573.942","570.215","0"
